CCSDS_OMM_VERS = 2.0
CREATION_DATE  = 
ORIGINATOR     = 

OBJECT_NAME    = STARLINK-35355
OBJECT_ID      = 2025-259AC
CENTER_NAME    = EARTH
REF_FRAME      = TEME
TIME_SYSTEM    = UTC
MEAN_ELEMENT_THEORY = SGP/SGP4

EPOCH          = 2025-12-06T16:39:34.538400
MEAN_MOTION    = 15.50601371
ECCENTRICITY   = .00010967
INCLINATION    = 43.0003
RA_OF_ASC_NODE = 82.5800
ARG_OF_PERICENTER = 298.3309
MEAN_ANOMALY   = 61.7440

EPHEMERIS_TYPE = 0
CLASSIFICATION_TYPE = U
NORAD_CAT_ID   = 66448
ELEMENT_SET_NO = 999
REV_AT_EPOCH   = 523
BSTAR          = .22573217E-2
MEAN_MOTION_DOT = .13449E-2
MEAN_MOTION_DDOT = 0

CCSDS_OMM_VERS = 2.0
CREATION_DATE  = 
ORIGINATOR     = 

OBJECT_NAME    = STARLINK-34720
OBJECT_ID      = 2025-259AD
CENTER_NAME    = EARTH
REF_FRAME      = TEME
TIME_SYSTEM    = UTC
MEAN_ELEMENT_THEORY = SGP/SGP4

EPOCH          = 2025-12-06T16:39:04.732992
MEAN_MOTION    = 15.50613009
ECCENTRICITY   = .00015775
INCLINATION    = 43.0002
RA_OF_ASC_NODE = 82.5763
ARG_OF_PERICENTER = 274.1067
MEAN_ANOMALY   = 85.9613

EPHEMERIS_TYPE = 0
CLASSIFICATION_TYPE = U
NORAD_CAT_ID   = 66449
ELEMENT_SET_NO = 999
REV_AT_EPOCH   = 512
BSTAR          = .24109474E-2
MEAN_MOTION_DOT = .143901E-2
MEAN_MOTION_DDOT = 0

CCSDS_OMM_VERS = 2.0
CREATION_DATE  = 
ORIGINATOR     = 

OBJECT_NAME    = STARLINK-35334
OBJECT_ID      = 2025-259AE
CENTER_NAME    = EARTH
REF_FRAME      = TEME
TIME_SYSTEM    = UTC
MEAN_ELEMENT_THEORY = SGP/SGP4

EPOCH          = 2025-12-06T15:05:49.303968
MEAN_MOTION    = 15.50640512
ECCENTRICITY   = .00016631
INCLINATION    = 43.0010
RA_OF_ASC_NODE = 82.9491
ARG_OF_PERICENTER = 265.9718
MEAN_ANOMALY   = 94.0952

EPHEMERIS_TYPE = 0
CLASSIFICATION_TYPE = U
NORAD_CAT_ID   = 66450
ELEMENT_SET_NO = 999
REV_AT_EPOCH   = 522
BSTAR          = .21499199E-2
MEAN_MOTION_DOT = .12815E-2
MEAN_MOTION_DDOT = 0

CCSDS_OMM_VERS = 2.0
CREATION_DATE  = 
ORIGINATOR     = 

OBJECT_NAME    = VIASAT-3 F2
OBJECT_ID      = 2025-261A
CENTER_NAME    = EARTH
REF_FRAME      = TEME
TIME_SYSTEM    = UTC
MEAN_ELEMENT_THEORY = SGP/SGP4

EPOCH          = 2025-12-04T21:51:56.064384
MEAN_MOTION    = 2.28030055
ECCENTRICITY   = .23396731
INCLINATION    = 5.5696
RA_OF_ASC_NODE = 293.0418
ARG_OF_PERICENTER = 184.3884
MEAN_ANOMALY   = 199.1368

EPHEMERIS_TYPE = 0
CLASSIFICATION_TYPE = U
NORAD_CAT_ID   = 66454
ELEMENT_SET_NO = 999
REV_AT_EPOCH   = 47
BSTAR          = 0
MEAN_MOTION_DOT = -.61E-6
MEAN_MOTION_DDOT = 0

CCSDS_OMM_VERS = 2.0
CREATION_DATE  = 
ORIGINATOR     = 

OBJECT_NAME    = ATLAS 5 CENTAUR R/B
OBJECT_ID      = 2025-261B
CENTER_NAME    = EARTH
REF_FRAME      = TEME
TIME_SYSTEM    = UTC
MEAN_ELEMENT_THEORY = SGP/SGP4

EPOCH          = 2025-12-07T02:35:10.279104
MEAN_MOTION    = 2.28259391
ECCENTRICITY   = .23295535
INCLINATION    = 6.1530
RA_OF_ASC_NODE = 292.1796
ARG_OF_PERICENTER = 185.3522
MEAN_ANOMALY   = 196.7478

EPHEMERIS_TYPE = 0
CLASSIFICATION_TYPE = U
NORAD_CAT_ID   = 66455
ELEMENT_SET_NO = 999
REV_AT_EPOCH   = 52
BSTAR          = 0
MEAN_MOTION_DOT = -.74E-6
MEAN_MOTION_DDOT = 0

CCSDS_OMM_VERS = 2.0
CREATION_DATE  = 
ORIGINATOR     = 

OBJECT_NAME    = STARLINK-35643
OBJECT_ID      = 2025-262A
CENTER_NAME    = EARTH
REF_FRAME      = TEME
TIME_SYSTEM    = UTC
MEAN_ELEMENT_THEORY = SGP/SGP4

EPOCH          = 2025-12-07T06:00:04.999968
MEAN_MOTION    = 15.45377884
ECCENTRICITY   = .00013484
INCLINATION    = 43.0012
RA_OF_ASC_NODE = 103.2611
ARG_OF_PERICENTER = 269.4040
MEAN_ANOMALY   = 348.2143

EPHEMERIS_TYPE = 0
CLASSIFICATION_TYPE = U
NORAD_CAT_ID   = 66456
ELEMENT_SET_NO = 999
REV_AT_EPOCH   = 475
BSTAR          = -.46662534E-1
MEAN_MOTION_DOT = -.203169E-1
MEAN_MOTION_DDOT = 0

CCSDS_OMM_VERS = 2.0
CREATION_DATE  = 
ORIGINATOR     = 

OBJECT_NAME    = STARLINK-35466
OBJECT_ID      = 2025-262B
CENTER_NAME    = EARTH
REF_FRAME      = TEME
TIME_SYSTEM    = UTC
MEAN_ELEMENT_THEORY = SGP/SGP4

EPOCH          = 2025-12-07T06:00:04.999968
MEAN_MOTION    = 15.47991868
ECCENTRICITY   = .00010581
INCLINATION    = 43.0008
RA_OF_ASC_NODE = 103.2309
ARG_OF_PERICENTER = 276.5943
MEAN_ANOMALY   = 353.1305

EPHEMERIS_TYPE = 0
CLASSIFICATION_TYPE = U
NORAD_CAT_ID   = 66457
ELEMENT_SET_NO = 999
REV_AT_EPOCH   = 475
BSTAR          = -.42321877E-1
MEAN_MOTION_DOT = -.2020153E-1
MEAN_MOTION_DDOT = 0

CCSDS_OMM_VERS = 2.0
CREATION_DATE  = 
ORIGINATOR     = 

OBJECT_NAME    = STARLINK-35684
OBJECT_ID      = 2025-262C
CENTER_NAME    = EARTH
REF_FRAME      = TEME
TIME_SYSTEM    = UTC
MEAN_ELEMENT_THEORY = SGP/SGP4

EPOCH          = 2025-12-07T06:00:04.999968
MEAN_MOTION    = 15.46703002
ECCENTRICITY   = .00010152
INCLINATION    = 43.0010
RA_OF_ASC_NODE = 103.2441
ARG_OF_PERICENTER = 260.7362
MEAN_ANOMALY   = 3.6108

EPHEMERIS_TYPE = 0
CLASSIFICATION_TYPE = U
NORAD_CAT_ID   = 66458
ELEMENT_SET_NO = 999
REV_AT_EPOCH   = 475
BSTAR          = -.44035668E-1
MEAN_MOTION_DOT = -.2010157E-1
MEAN_MOTION_DDOT = 0

CCSDS_OMM_VERS = 2.0
CREATION_DATE  = 
ORIGINATOR     = 

OBJECT_NAME    = STARLINK-35449
OBJECT_ID      = 2025-262D
CENTER_NAME    = EARTH
REF_FRAME      = TEME
TIME_SYSTEM    = UTC
MEAN_ELEMENT_THEORY = SGP/SGP4

EPOCH          = 2025-12-07T06:00:04.999968
MEAN_MOTION    = 15.49401073
ECCENTRICITY   = .00013158
INCLINATION    = 43.0006
RA_OF_ASC_NODE = 103.2204
ARG_OF_PERICENTER = 258.2916
MEAN_ANOMALY   = 15.2391

EPHEMERIS_TYPE = 0
CLASSIFICATION_TYPE = U
NORAD_CAT_ID   = 66459
ELEMENT_SET_NO = 999
REV_AT_EPOCH   = 475
BSTAR          = -.41355578E-1
MEAN_MOTION_DOT = -.2069223E-1
MEAN_MOTION_DDOT = 0

CCSDS_OMM_VERS = 2.0
CREATION_DATE  = 
ORIGINATOR     = 

OBJECT_NAME    = STARLINK-35424
OBJECT_ID      = 2025-262E
CENTER_NAME    = EARTH
REF_FRAME      = TEME
TIME_SYSTEM    = UTC
MEAN_ELEMENT_THEORY = SGP/SGP4

EPOCH          = 2025-12-07T06:00:04.999968
MEAN_MOTION    = 15.50717358
ECCENTRICITY   = .00014933
INCLINATION    = 43.0007
RA_OF_ASC_NODE = 103.2147
ARG_OF_PERICENTER = 263.8719
MEAN_ANOMALY   = 12.1247

EPHEMERIS_TYPE = 0
CLASSIFICATION_TYPE = U
NORAD_CAT_ID   = 66460
ELEMENT_SET_NO = 999
REV_AT_EPOCH   = 475
BSTAR          = -.38781991E-1
MEAN_MOTION_DOT = -.2038036E-1
MEAN_MOTION_DDOT = 0

CCSDS_OMM_VERS = 2.0
CREATION_DATE  = 
ORIGINATOR     = 

OBJECT_NAME    = STARLINK-35132
OBJECT_ID      = 2025-262F
CENTER_NAME    = EARTH
REF_FRAME      = TEME
TIME_SYSTEM    = UTC
MEAN_ELEMENT_THEORY = SGP/SGP4

EPOCH          = 2025-12-07T06:00:04.999968
MEAN_MOTION    = 15.50732645
ECCENTRICITY   = .00017996
INCLINATION    = 43.0007
RA_OF_ASC_NODE = 103.2100
ARG_OF_PERICENTER = 255.1070
MEAN_ANOMALY   = 22.7939

EPHEMERIS_TYPE = 0
CLASSIFICATION_TYPE = U
NORAD_CAT_ID   = 66461
ELEMENT_SET_NO = 999
REV_AT_EPOCH   = 475
BSTAR          = -.81990942E-2
MEAN_MOTION_DOT = -.456847E-2
MEAN_MOTION_DDOT = 0

CCSDS_OMM_VERS = 2.0
CREATION_DATE  = 
ORIGINATOR     = 

OBJECT_NAME    = STARLINK-35499
OBJECT_ID      = 2025-262G
CENTER_NAME    = EARTH
REF_FRAME      = TEME
TIME_SYSTEM    = UTC
MEAN_ELEMENT_THEORY = SGP/SGP4

EPOCH          = 2025-12-07T06:00:04.999968
MEAN_MOTION    = 15.50537296
ECCENTRICITY   = .00015518
INCLINATION    = 43.0009
RA_OF_ASC_NODE = 103.2040
ARG_OF_PERICENTER = 255.5560
MEAN_ANOMALY   = 24.2970

EPHEMERIS_TYPE = 0
CLASSIFICATION_TYPE = U
NORAD_CAT_ID   = 66462
ELEMENT_SET_NO = 999
REV_AT_EPOCH   = 475
BSTAR          = .11730991E-2
MEAN_MOTION_DOT = .68985E-3
MEAN_MOTION_DDOT = 0

