STARLINK-35355          
1 66448U 25259AC  25340.69414975  .00134490  00000+0  22573-2 0  9991
2 66448  43.0003  82.5800 0001096 298.3309  61.7440 15.50601371  5234
STARLINK-34720          
1 66449U 25259AD  25340.69380478  .00143901  00000+0  24109-2 0  9996
2 66449  43.0002  82.5763 0001577 274.1067  85.9613 15.50613009  5128
STARLINK-35334          
1 66450U 25259AE  25340.62904287  .00128150  00000+0  21499-2 0  9999
2 66450  43.0010  82.9491 0001663 265.9718  94.0952 15.50640512  5225
VIASAT-3 F2             
1 66454U 25261A   25338.91106556 -.00000061  00000+0  00000+0 0  9991
2 66454   5.5696 293.0418 2339673 184.3884 199.1368  2.28030055   477
ATLAS 5 CENTAUR R/B     
1 66455U 25261B   25341.10775786 -.00000074  00000+0  00000+0 0  9998
2 66455   6.1530 292.1796 2329553 185.3522 196.7478  2.28259391   524
STARLINK-35643          
1 66456U 25262A   25341.25005787 -.02031690  00000+0 -46663-1 0  9991
2 66456  43.0012 103.2611 0001348 269.4040 348.2143 15.45377884  4757
STARLINK-35466          
1 66457U 25262B   25341.25005787 -.02020153  00000+0 -42322-1 0  9992
2 66457  43.0008 103.2309 0001058 276.5943 353.1305 15.47991868  4757
STARLINK-35684          
1 66458U 25262C   25341.25005787 -.02010157  00000+0 -44036-1 0  9990
2 66458  43.0010 103.2441 0001015 260.7362   3.6108 15.46703002  4759
STARLINK-35449          
1 66459U 25262D   25341.25005787 -.02069223  00000+0 -41356-1 0  9991
2 66459  43.0006 103.2204 0001315 258.2916  15.2391 15.49401073  4751
STARLINK-35424          
1 66460U 25262E   25341.25005787 -.02038036  00000+0 -38782-1 0  9990
2 66460  43.0007 103.2147 0001493 263.8719  12.1247 15.50717358  4754
STARLINK-35132          
1 66461U 25262F   25341.25005787 -.00456847  00000+0 -81991-2 0  9994
2 66461  43.0007 103.2100 0001799 255.1070  22.7939 15.50732645  4758
STARLINK-35499          
1 66462U 25262G   25341.25005787  .00068985  00000+0  11731-2 0  9990
2 66462  43.0009 103.2040 0001551 255.5560  24.2970 15.50537296  4755
